{
  "type": "FeatureCollection",
  "features": [
    {
      "type": "Feature",
      "properties": {
        "norad_id": 66604,
        "name": "STARLINK-35977",
        "group": "last-30-days",
        "lat": -10.444314636532113,
        "lon": -170.76086086725772,
        "alt_km": 416.17970232100197,
        "timestamp": "2025-12-11T08:58:25.855088+00:00",
        "meta_object_name": "STARLINK-35977",
        "meta_object_id": "2025-270S",
        "meta_epoch": "2025-12-11T04:00:01.998720",
        "meta_mean_motion": 15.50642607,
        "meta_eccentricity": 0.0001705,
        "meta_inclination": 42.9996,
        "meta_ra_of_asc_node": 201.861,
        "meta_arg_of_pericenter": 243.9885,
        "meta_mean_anomaly": 22.5149,
        "meta_ephemeris_type": 0,
        "meta_classification_type": "U",
        "meta_norad_cat_id": 66604,
        "meta_element_set_no": 999,
        "meta_rev_at_epoch": 414,
        "meta_bstar": -0.0017542,
        "meta_mean_motion_dot": -0.00102154,
        "meta_mean_motion_ddot": 0,
        "tle_line1": "1 66604U 25270S   25345.16668980 -.00102154  00000+0 -17542-2 0  9996",
        "tle_line2": "2 66604  42.9996 201.8610 0001705 243.9885  22.5149 15.50642607  4141"
      },
      "geometry": {
        "type": "Point",
        "coordinates": [
          -170.76086086725772,
          -10.444314636532113
        ]
      }
    },
    {
      "type": "Feature",
      "properties": {
        "norad_id": 66605,
        "name": "STARLINK-36052",
        "group": "last-30-days",
        "lat": -9.137683530674908,
        "lon": -169.2966188140614,
        "alt_km": 415.8388391276594,
        "timestamp": "2025-12-11T08:58:25.855110+00:00",
        "meta_object_name": "STARLINK-36052",
        "meta_object_id": "2025-270T",
        "meta_epoch": "2025-12-11T04:00:01.998720",
        "meta_mean_motion": 15.50626119,
        "meta_eccentricity": 0.0002023,
        "meta_inclination": 42.9996,
        "meta_ra_of_asc_node": 201.8557,
        "meta_arg_of_pericenter": 258.0333,
        "meta_mean_anomaly": 10.4309,
        "meta_ephemeris_type": 0,
        "meta_classification_type": "U",
        "meta_norad_cat_id": 66605,
        "meta_element_set_no": 999,
        "meta_rev_at_epoch": 414,
        "meta_bstar": -0.001908,
        "meta_mean_motion_dot": -0.00110895,
        "meta_mean_motion_ddot": 0,
        "tle_line1": "1 66605U 25270T   25345.16668980 -.00110895  00000+0 -19080-2 0  9997",
        "tle_line2": "2 66605  42.9996 201.8557 0002023 258.0333  10.4309 15.50626119  4145"
      },
      "geometry": {
        "type": "Point",
        "coordinates": [
          -169.2966188140614,
          -9.137683530674908
        ]
      }
    },
    {
      "type": "Feature",
      "properties": {
        "norad_id": 66606,
        "name": "STARLINK-36063",
        "group": "last-30-days",
        "lat": -6.572697367262233,
        "lon": -166.46938917590842,
        "alt_km": 415.83651200504664,
        "timestamp": "2025-12-11T08:58:25.855122+00:00",
        "meta_object_name": "STARLINK-36063",
        "meta_object_id": "2025-270U",
        "meta_epoch": "2025-12-11T04:00:01.998720",
        "meta_mean_motion": 15.50647196,
        "meta_eccentricity": 0.0001682,
        "meta_inclination": 42.9998,
        "meta_ra_of_asc_node": 201.8458,
        "meta_arg_of_pericenter": 244.7792,
        "meta_mean_anomaly": 27.4794,
        "meta_ephemeris_type": 0,
        "meta_classification_type": "U",
        "meta_norad_cat_id": 66606,
        "meta_element_set_no": 999,
        "meta_rev_at_epoch": 414,
        "meta_bstar": -0.0019137,
        "meta_mean_motion_dot": -0.00111303,
        "meta_mean_motion_ddot": 0,
        "tle_line1": "1 66606U 25270U   25345.16668980 -.00111303  00000+0 -19137-2 0  9996",
        "tle_line2": "2 66606  42.9998 201.8458 0001682 244.7792  27.4794 15.50647196  4143"
      },
      "geometry": {
        "type": "Point",
        "coordinates": [
          -166.46938917590842,
          -6.572697367262233
        ]
      }
    },
    {
      "type": "Feature",
      "properties": {
        "norad_id": 66607,
        "name": "STARLINK-35993",
        "group": "last-30-days",
        "lat": -7.847890638676467,
        "lon": -167.86748423194797,
        "alt_km": 415.73888983206143,
        "timestamp": "2025-12-11T08:58:25.855132+00:00",
        "meta_object_name": "STARLINK-35993",
        "meta_object_id": "2025-270V",
        "meta_epoch": "2025-12-11T04:00:01.998720",
        "meta_mean_motion": 15.50631657,
        "meta_eccentricity": 0.0001959,
        "meta_inclination": 42.9996,
        "meta_ra_of_asc_node": 201.8512,
        "meta_arg_of_pericenter": 257.9445,
        "meta_mean_anomaly": 12.4351,
        "meta_ephemeris_type": 0,
        "meta_classification_type": "U",
        "meta_norad_cat_id": 66607,
        "meta_element_set_no": 999,
        "meta_rev_at_epoch": 404,
        "meta_bstar": -0.0020905,
        "meta_mean_motion_dot": -0.00121333,
        "meta_mean_motion_ddot": 0,
        "tle_line1": "1 66607U 25270V   25345.16668980 -.00121333  00000+0 -20905-2 0  9996",
        "tle_line2": "2 66607  42.9996 201.8512 0001959 257.9445  12.4351 15.50631657  4048"
      },
      "geometry": {
        "type": "Point",
        "coordinates": [
          -167.86748423194797,
          -7.847890638676467
        ]
      }
    },
    {
      "type": "Feature",
      "properties": {
        "norad_id": 66608,
        "name": "STARLINK-36036",
        "group": "last-30-days",
        "lat": -5.280801631435516,
        "lon": -165.0629619151955,
        "alt_km": 415.7530906485981,
        "timestamp": "2025-12-11T08:58:25.855143+00:00",
        "meta_object_name": "STARLINK-36036",
        "meta_object_id": "2025-270W",
        "meta_epoch": "2025-12-11T04:00:01.998720",
        "meta_mean_motion": 15.50632682,
        "meta_eccentricity": 0.000174,
        "meta_inclination": 42.9998,
        "meta_ra_of_asc_node": 201.842,
        "meta_arg_of_pericenter": 244.3963,
        "meta_mean_anomaly": 29.7762,
        "meta_ephemeris_type": 0,
        "meta_classification_type": "U",
        "meta_norad_cat_id": 66608,
        "meta_element_set_no": 999,
        "meta_rev_at_epoch": 398,
        "meta_bstar": -0.0015054,
        "meta_mean_motion_dot": -0.00087839,
        "meta_mean_motion_ddot": 0,
        "tle_line1": "1 66608U 25270W   25345.16668980 -.00087839  00000+0 -15054-2 0  9998",
        "tle_line2": "2 66608  42.9998 201.8420 0001740 244.3963  29.7762 15.50632682  3980"
      },
      "geometry": {
        "type": "Point",
        "coordinates": [
          -165.0629619151955,
          -5.280801631435516
        ]
      }
    },
    {
      "type": "Feature",
      "properties": {
        "norad_id": 66609,
        "name": "STARLINK-36034",
        "group": "last-30-days",
        "lat": -3.9507266662806586,
        "lon": -163.62509739922515,
        "alt_km": 415.3595948128268,
        "timestamp": "2025-12-11T08:58:25.855155+00:00",
        "meta_object_name": "STARLINK-36034",
        "meta_object_id": "2025-270X",
        "meta_epoch": "2025-12-11T04:00:01.998720",
        "meta_mean_motion": 15.5059205,
        "meta_eccentricity": 0.0001908,
        "meta_inclination": 42.9998,
        "meta_ra_of_asc_node": 201.8376,
        "meta_arg_of_pericenter": 262.813,
        "meta_mean_anomaly": 13.3438,
        "meta_ephemeris_type": 0,
        "meta_classification_type": "U",
        "meta_norad_cat_id": 66609,
        "meta_element_set_no": 999,
        "meta_rev_at_epoch": 398,
        "meta_bstar": -0.0012962,
        "meta_mean_motion_dot": -0.00075692,
        "meta_mean_motion_ddot": 0,
        "tle_line1": "1 66609U 25270X   25345.16668980 -.00075692  00000+0 -12962-2 0  9998",
        "tle_line2": "2 66609  42.9998 201.8376 0001908 262.8130  13.3438 15.50592050  3981"
      },
      "geometry": {
        "type": "Point",
        "coordinates": [
          -163.62509739922515,
          -3.9507266662806586
        ]
      }
    },
    {
      "type": "Feature",
      "properties": {
        "norad_id": 66610,
        "name": "STARLINK-35680",
        "group": "last-30-days",
        "lat": -2.646602120226405,
        "lon": -162.2237677370649,
        "alt_km": 415.23017070897276,
        "timestamp": "2025-12-11T08:58:25.855166+00:00",
        "meta_object_name": "STARLINK-35680",
        "meta_object_id": "2025-270Y",
        "meta_epoch": "2025-12-11T04:00:01.998720",
        "meta_mean_motion": 15.5062671,
        "meta_eccentricity": 0.0002043,
        "meta_inclination": 43,
        "meta_ra_of_asc_node": 201.832,
        "meta_arg_of_pericenter": 261.1618,
        "meta_mean_anomaly": 16.8904,
        "meta_ephemeris_type": 0,
        "meta_classification_type": "U",
        "meta_norad_cat_id": 66610,
        "meta_element_set_no": 999,
        "meta_rev_at_epoch": 425,
        "meta_bstar": -0.0019719,
        "meta_mean_motion_dot": -0.00114549,
        "meta_mean_motion_ddot": 0,
        "tle_line1": "1 66610U 25270Y   25345.16668980 -.00114549  00000+0 -19719-2 0  9992",
        "tle_line2": "2 66610  43.0000 201.8320 0002043 261.1618  16.8904 15.50626710  4250"
      },
      "geometry": {
        "type": "Point",
        "coordinates": [
          -162.2237677370649,
          -2.646602120226405
        ]
      }
    }
  ]
}